{"type": "FeatureCollection", "features": [ {"type": "Feature", "properties": {"norad_id": 33153, "name": "INTELSAT 25 (IS-25)", "group": "intelsat", "lat": -2.117455707565698, "lon": 9.239908117162779, "alt_km": 35791.996461026436, "timestamp": "2025-12-08T21:31:04.342836+00:00", "meta": {"OBJECT_NAME": "INTELSAT 25 (IS-25)", "OBJECT_ID": "2008-034A", "EPOCH": "2025-12-08T11:44:32.941824", "MEAN_MOTION": 1.00270434, "ECCENTRICITY": 0.00054185, "INCLINATION": 2.2167, "RA_OF_ASC_NODE": 82.6928, "ARG_OF_PERICENTER": 183.3941, "MEAN_ANOMALY": 316.0513, "EPHEMERIS_TYPE": 0, "CLASSIFICATION_TYPE": "U", "NORAD_CAT_ID": 33153, "ELEMENT_SET_NO": 999, "REV_AT_EPOCH": 6378, "BSTAR": 0, "MEAN_MOTION_DOT": -2.22e-06, "MEAN_MOTION_DDOT": 0}, "tle": {"line1": "1 33153U 08034A   25342.48927016 -.00000222  00000+0  00000+0 0  9998", "line2": "2 33153   2.2167  82.6928 0005418 183.3941 316.0513  1.00270434 63781"}}, "geometry": {"type": "Point", "coordinates": [9.239908117162779, -2.117455707565698]}}, {"type": "Feature", "properties": {"norad_id": 33376, "name": "GALAXY 19 (G-19)", "group": "intelsat", "lat": -0.010497191285811378, "lon": -56.32393773043233, "alt_km": 35774.555973263596, "timestamp": "2025-12-08T21:31:04.342848+00:00", "meta": {"OBJECT_NAME": "GALAXY 19 (G-19)", "OBJECT_ID": "2008-045A", "EPOCH": "2025-12-08T12:23:15.078336", "MEAN_MOTION": 1.00269772, "ECCENTRICITY": 0.00033922, "INCLINATION": 0.0166, "RA_OF_ASC_NODE": 308.7127, "ARG_OF_PERICENTER": 322.4993, "MEAN_ANOMALY": 255.1198, "EPHEMERIS_TYPE": 0, "CLASSIFICATION_TYPE": "U", "NORAD_CAT_ID": 33376, "ELEMENT_SET_NO": 999, "REV_AT_EPOCH": 6299, "BSTAR": 0, "MEAN_MOTION_DOT": -1.37e-06, "MEAN_MOTION_DDOT": 0}, "tle": {"line1": "1 33376U 08045A   25342.51614674 -.00000137  00000+0  00000+0 0  9999", "line2": "2 33376   0.0166 308.7127 0003392 322.4993 255.1198  1.00269772 62995"}}, "geometry": {"type": "Point", "coordinates": [-56.32393773043233, -0.010497191285811378]}}, {"type": "Feature", "properties": {"norad_id": 35493, "name": "FM-5", "group": "intelsat", "lat": 0.00372333832180022, "lon": -45.47368196358437, "alt_km": 35788.90464865418, "timestamp": "2025-12-08T21:31:04.342860+00:00", "meta": {"OBJECT_NAME": "FM-5", "OBJECT_ID": "2009-034A", "EPOCH": "2025-12-08T13:11:39.599232", "MEAN_MOTION": 1.00270908, "ECCENTRICITY": 8.538e-05, "INCLINATION": 0.0216, "RA_OF_ASC_NODE": 286.7694, "ARG_OF_PERICENTER": 252.2013, "MEAN_ANOMALY": 10.3592, "EPHEMERIS_TYPE": 0, "CLASSIFICATION_TYPE": "U", "NORAD_CAT_ID": 35493, "ELEMENT_SET_NO": 999, "REV_AT_EPOCH": 4473, "BSTAR": 0, "MEAN_MOTION_DOT": -1.98e-06, "MEAN_MOTION_DDOT": 0}, "tle": {"line1": "1 35493U 09034A   25342.54976388 -.00000198  00000+0  00000+0 0  9993", "line2": "2 35493   0.0216 286.7694 0000853 252.2013  10.3592  1.00270908 44733"}}, "geometry": {"type": "Point", "coordinates": [-45.47368196358437, 0.00372333832180022]}}, {"type": "Feature", "properties": {"norad_id": 36097, "name": "INTELSAT 14 (IS-14)", "group": "intelsat", "lat": 0.010694948126040965, "lon": -4.3010160503497, "alt_km": 35786.82968399076, "timestamp": "2025-12-08T21:31:04.342872+00:00", "meta": {"OBJECT_NAME": "INTELSAT 14 (IS-14)", "OBJECT_ID": "2009-064A", "EPOCH": "2025-12-08T09:57:58.147776", "MEAN_MOTION": 1.00270625, "ECCENTRICITY": 0.0002702, "INCLINATION": 0.0102, "RA_OF_ASC_NODE": 331.4392, "ARG_OF_PERICENTER": 292.4176, "MEAN_ANOMALY": 278.0672, "EPHEMERIS_TYPE": 0, "CLASSIFICATION_TYPE": "U", "NORAD_CAT_ID": 36097, "ELEMENT_SET_NO": 999, "REV_AT_EPOCH": 5869, "BSTAR": 0, "MEAN_MOTION_DOT": -2.71e-06, "MEAN_MOTION_DDOT": 0}, "tle": {"line1": "1 36097U 09064A   25342.41525634 -.00000271  00000+0  00000+0 0  9999", "line2": "2 36097   0.0102 331.4392 0002702 292.4176 278.0672  1.00270625 58690"}}, "geometry": {"type": "Point", "coordinates": [-4.3010160503497, 0.010694948126040965]}}, {"type": "Feature", "properties": {"norad_id": 36106, "name": "INTELSAT 15 (IS-15)", "group": "intelsat", "lat": 0.02381631791804971, "lon": 125.79107838239528, "alt_km": 35794.22712456201, "timestamp": "2025-12-08T21:31:04.342884+00:00", "meta": {"OBJECT_NAME": "INTELSAT 15 (IS-15)", "OBJECT_ID": "2009-067A", "EPOCH": "2025-12-08T14:00:34.913088", "MEAN_MOTION": 1.00270213, "ECCENTRICITY": 0.00024693, "INCLINATION": 0.0105, "RA_OF_ASC_NODE": 16.3415, "ARG_OF_PERICENTER": 246.8045, "MEAN_ANOMALY": 109.7393, "EPHEMERIS_TYPE": 0, "CLASSIFICATION_TYPE": "U", "NORAD_CAT_ID": 36106, "ELEMENT_SET_NO": 999, "REV_AT_EPOCH": 3931, "BSTAR": 0, "MEAN_MOTION_DOT": -1.83e-06, "MEAN_MOTION_DDOT": 0}, "tle": {"line1": "1 36106U 09067A   25342.58373742 -.00000183  00000+0  00000+0 0  9994", "line2": "2 36106   0.0105  16.3415 0002469 246.8045 109.7393  1.00270213 39318"}}, "geometry": {"type": "Point", "coordinates": [125.79107838239528, 0.02381631791804971]}}, {"type": "Feature", "properties": {"norad_id": 36131, "name": "DIRECTV 12", "group": "intelsat", "lat": -0.018880679575509592, "lon": -62.06361169202945, "alt_km": 35784.57208358037, "timestamp": "2025-12-08T21:31:04.342900+00:00", "meta": {"OBJECT_NAME": "DIRECTV 12", "OBJECT_ID": "2009-075A", "EPOCH": "2025-12-08T12:36:25.479360", "MEAN_MOTION": 1.00271962, "ECCENTRICITY": 4.518e-05, "INCLINATION": 0.0407, "RA_OF_ASC_NODE": 139.7381, "ARG_OF_PERICENTER": 197.4259, "MEAN_ANOMALY": 186.7516, "EPHEMERIS_TYPE": 0, "CLASSIFICATION_TYPE": "U", "NORAD_CAT_ID": 36131, "ELEMENT_SET_NO": 999, "REV_AT_EPOCH": 4464, "BSTAR": 0, "MEAN_MOTION_DOT": -1.01e-06, "MEAN_MOTION_DDOT": 0}, "tle": {"line1": "1 36131U 09075A   25342.52529490 -.00000101  00000+0  00000+0 0  9998", "line2": "2 36131   0.0407 139.7381 0000451 197.4259 186.7516  1.00271962 44646"}}, "geometry": {"type": "Point", "coordinates": [-62.06361169202945, -0.018880679575509592]}}, {"type": "Feature", "properties": {"norad_id": 36397, "name": "INTELSAT 16 (IS-16)", "group": "intelsat", "lat": 0.0029521129271620895, "lon": -35.51543336749083, "alt_km": 35782.12386613488, "timestamp": "2025-12-08T21:31:04.342914+00:00", "meta": {"OBJECT_NAME": "INTELSAT 16 (IS-16)", "OBJECT_ID": "2010-006A", "EPOCH": "2025-12-08T12:35:16.423296", "MEAN_MOTION": 1.0027046, "ECCENTRICITY": 0.00023199, "INCLINATION": 0.0174, "RA_OF_ASC_NODE": 305.6141, "ARG_OF_PERICENTER": 315.2486, "MEAN_ANOMALY": 289.2876, "EPHEMERIS_TYPE": 0, "CLASSIFICATION_TYPE": "U", "NORAD_CAT_ID": 36397, "ELEMENT_SET_NO": 999, "REV_AT_EPOCH": 5774, "BSTAR": 0, "MEAN_MOTION_DOT": -2.42e-06, "MEAN_MOTION_DDOT": 0}, "tle": {"line1": "1 36397U 10006A   25342.52449564 -.00000242  00000+0  00000+0 0  9997", "line2": "2 36397   0.0174 305.6141 0002319 315.2486 289.2876  1.00270460 57741"}}, "geometry": {"type": "Point", "coordinates": [-35.51543336749083, 0.0029521129271620895]}}, {"type": "Feature", "properties": {"norad_id": 37185, "name": "XM-5", "group": "intelsat", "lat": -0.0019046942958052967, "lon": -74.5109707105433, "alt_km": 35790.912307021164, "timestamp": "2025-12-08T21:31:04.342926+00:00", "meta": {"OBJECT_NAME": "XM-5", "OBJECT_ID": "2010-053A", "EPOCH": "2025-12-08T12:13:02.204256", "MEAN_MOTION": 1.00270207, "ECCENTRICITY": 0.0001792, "INCLINATION": 0.0649, "RA_OF_ASC_NODE": 272.5719, "ARG_OF_PERICENTER": 247.2018, "MEAN_ANOMALY": 345.8143, "EPHEMERIS_TYPE": 0, "CLASSIFICATION_TYPE": "U", "NORAD_CAT_ID": 37185, "ELEMENT_SET_NO": 999, "REV_AT_EPOCH": 5557, "BSTAR": 0, "MEAN_MOTION_DOT": -2.1e-07, "MEAN_MOTION_DDOT": 0}, "tle": {"line1": "1 37185U 10053A   25342.50905329 -.00000021  00000+0  00000+0 0  9994", "line2": "2 37185   0.0649 272.5719 0001792 247.2018 345.8143  1.00270207 55570"}}, "geometry": {"type": "Point", "coordinates": [-74.5109707105433, -0.0019046942958052967]}}, {"type": "Feature", "properties": {"norad_id": 37238, "name": "INTELSAT 17 (IS-17)", "group": "intelsat", "lat": 0.009738346330432704, "lon": 106.65593619013998, "alt_km": 35795.06180254048, "timestamp": "2025-12-08T21:31:04.342938+00:00", "meta": {"OBJECT_NAME": "INTELSAT 17 (IS-17)", "OBJECT_ID": "2010-065B", "EPOCH": "2025-12-08T13:55:05.439648", "MEAN_MOTION": 1.00272258, "ECCENTRICITY": 0.00024453, "INCLINATION": 0.0172, "RA_OF_ASC_NODE": 280.768, "ARG_OF_PERICENTER": 337.6714, "MEAN_ANOMALY": 93.9259, "EPHEMERIS_TYPE": 0, "CLASSIFICATION_TYPE": "U", "NORAD_CAT_ID": 37238, "ELEMENT_SET_NO": 999, "REV_AT_EPOCH": 5133, "BSTAR": 0, "MEAN_MOTION_DOT": 0, "MEAN_MOTION_DDOT": 0}, "tle": {"line1": "1 37238U 10065B   25342.57992407  .00000000  00000+0  00000+0 0  9992", "line2": "2 37238   0.0172 280.7680 0002445 337.6714  93.9259  1.00272258 51338"}}, "geometry": {"type": "Point", "coordinates": [106.65593619013998, 0.009738346330432704]}}, {"type": "Feature", "properties": {"norad_id": 37392, "name": "INTELSAT 28 (IS-28)", "group": "intelsat", "lat": -1.2667896654865898, "lon": 9.005283803291409, "alt_km": 35791.16301865247, "timestamp": "2025-12-08T21:31:04.342950+00:00", "meta": {"OBJECT_NAME": "INTELSAT 28 (IS-28)", "OBJECT_ID": "2011-016A", "EPOCH": "2025-12-08T10:01:42.790368", "MEAN_MOTION": 1.00271812, "ECCENTRICITY": 0.00039877, "INCLINATION": 1.3133, "RA_OF_ASC_NODE": 85.105, "ARG_OF_PERICENTER": 177.0806, "MEAN_ANOMALY": 293.9628, "EPHEMERIS_TYPE": 0, "CLASSIFICATION_TYPE": "U", "NORAD_CAT_ID": 37392, "ELEMENT_SET_NO": 999, "REV_AT_EPOCH": 5137, "BSTAR": 0, "MEAN_MOTION_DOT": -2.23e-06, "MEAN_MOTION_DDOT": 0}, "tle": {"line1": "1 37392U 11016A   25342.41785637 -.00000223  00000+0  00000+0 0  9996", "line2": "2 37392   1.3133  85.1050 0003987 177.0806 293.9628  1.00271812 51379"}}, "geometry": {"type": "Point", "coordinates": [9.005283803291409, -1.2667896654865898]}}]}